{
  "type": "FeatureCollection",
  "features": [
    {
      "type": "Feature",
      "properties": {
        "norad_id": 44873,
        "name": "CSG-1",
        "group": "resource",
        "lat": -65.90658744910179,
        "lon": -27.890799323563243,
        "alt_km": 630.6953743051954,
        "timestamp": "2025-12-14T20:40:31.425616+00:00",
        "meta_object_name": "CSG-1",
        "meta_object_id": "2019-092A",
        "meta_epoch": "2025-12-14T08:13:19.946208",
        "meta_mean_motion": 14.82167205,
        "meta_eccentricity": 0.00014338,
        "meta_inclination": 97.881,
        "meta_ra_of_asc_node": 169.6427,
        "meta_arg_of_pericenter": 84.4736,
        "meta_mean_anomaly": 275.6641,
        "meta_ephemeris_type": 0,
        "meta_classification_type": "U",
        "meta_norad_cat_id": 44873,
        "meta_element_set_no": 999,
        "meta_rev_at_epoch": 32409,
        "meta_bstar": 0.00011442255,
        "meta_mean_motion_dot": 8.59e-06,
        "meta_mean_motion_ddot": 0,
        "tle_line1": "1 44873U 19092A   25348.34259197  .00000859  00000+0  11442-3 0  9995",
        "tle_line2": "2 44873  97.8810 169.6427 0001433  84.4736 275.6641 14.82167205324094"
      },
      "geometry": {
        "type": "Point",
        "coordinates": [
          -27.890799323563243,
          -65.90658744910179
        ]
      }
    },
    {
      "type": "Feature",
      "properties": {
        "norad_id": 46277,
        "name": "NEMO-HD",
        "group": "resource",
        "lat": 49.80114190200796,
        "lon": -123.437357362888,
        "alt_km": 440.22613978901063,
        "timestamp": "2025-12-14T20:40:31.425626+00:00",
        "meta_object_name": "NEMO-HD",
        "meta_object_id": "2020-061F",
        "meta_epoch": "2025-12-14T07:38:32.220672",
        "meta_mean_motion": 15.40370239,
        "meta_eccentricity": 0.00017844,
        "meta_inclination": 97.2216,
        "meta_ra_of_asc_node": 47.3962,
        "meta_arg_of_pericenter": 54.8556,
        "meta_mean_anomaly": 305.2857,
        "meta_ephemeris_type": 0,
        "meta_classification_type": "U",
        "meta_norad_cat_id": 46277,
        "meta_element_set_no": 999,
        "meta_rev_at_epoch": 29348,
        "meta_bstar": 0.00030314298,
        "meta_mean_motion_dot": 0.00012166,
        "meta_mean_motion_ddot": 0,
        "tle_line1": "1 46277U 20061F   25348.31842848  .00012166  00000+0  30314-3 0  9994",
        "tle_line2": "2 46277  97.2216  47.3962 0001784  54.8556 305.2857 15.40370239293489"
      },
      "geometry": {
        "type": "Point",
        "coordinates": [
          -123.437357362888,
          49.80114190200796
        ]
      }
    },
    {
      "type": "Feature",
      "properties": {
        "norad_id": 46984,
        "name": "SENTINEL-6A",
        "group": "resource",
        "lat": 16.175626392874424,
        "lon": -29.509342498313643,
        "alt_km": 1339.0533570730095,
        "timestamp": "2025-12-14T20:40:31.425637+00:00",
        "meta_object_name": "SENTINEL-6A",
        "meta_object_id": "2020-086A",
        "meta_epoch": "2025-12-14T04:50:25.535616",
        "meta_mean_motion": 12.80930703,
        "meta_eccentricity": 0.00077281,
        "meta_inclination": 66.0389,
        "meta_ra_of_asc_node": 159.2715,
        "meta_arg_of_pericenter": 269.2435,
        "meta_mean_anomaly": 90.7695,
        "meta_ephemeris_type": 0,
        "meta_classification_type": "U",
        "meta_norad_cat_id": 46984,
        "meta_element_set_no": 999,
        "meta_rev_at_epoch": 23663,
        "meta_bstar": 0.00016974661,
        "meta_mean_motion_dot": -2.2e-07,
        "meta_mean_motion_ddot": 0,
        "tle_line1": "1 46984U 20086A   25348.20168444 -.00000022  00000+0  16975-3 0  9993",
        "tle_line2": "2 46984  66.0389 159.2715 0007728 269.2435  90.7695 12.80930703236639"
      },
      "geometry": {
        "type": "Point",
        "coordinates": [
          -29.509342498313643,
          16.175626392874424
        ]
      }
    },
    {
      "type": "Feature",
      "properties": {
        "norad_id": 48079,
        "name": "GAOFEN-12 02",
        "group": "resource",
        "lat": 43.24768266277034,
        "lon": 170.44500820319016,
        "alt_km": 621.6858521964223,
        "timestamp": "2025-12-14T20:40:31.425647+00:00",
        "meta_object_name": "GAOFEN-12 02",
        "meta_object_id": "2021-026A",
        "meta_epoch": "2025-12-14T07:05:16.745280",
        "meta_mean_motion": 14.80677513,
        "meta_eccentricity": 0.00035742,
        "meta_inclination": 97.9852,
        "meta_ra_of_asc_node": 342.2942,
        "meta_arg_of_pericenter": 97.9701,
        "meta_mean_anomaly": 262.1917,
        "meta_ephemeris_type": 0,
        "meta_classification_type": "U",
        "meta_norad_cat_id": 48079,
        "meta_element_set_no": 999,
        "meta_rev_at_epoch": 25440,
        "meta_bstar": 0.00010282287,
        "meta_mean_motion_dot": 7.38e-06,
        "meta_mean_motion_ddot": 0,
        "tle_line1": "1 48079U 21026A   25348.29533270  .00000738  00000+0  10282-3 0  9995",
        "tle_line2": "2 48079  97.9852 342.2942 0003574  97.9701 262.1917 14.80677513254403"
      },
      "geometry": {
        "type": "Point",
        "coordinates": [
          170.44500820319016,
          43.24768266277034
        ]
      }
    },
    {
      "type": "Feature",
      "properties": {
        "norad_id": 48268,
        "name": "PLEIADES NEO 3",
        "group": "resource",
        "lat": -30.495212721629102,
        "lon": -123.41586986904355,
        "alt_km": 630.520993314597,
        "timestamp": "2025-12-14T20:40:31.425657+00:00",
        "meta_object_name": "PLEIADES NEO 3",
        "meta_object_id": "2021-034A",
        "meta_epoch": "2025-12-13T22:39:26.415936",
        "meta_mean_motion": 14.81674885,
        "meta_eccentricity": 0.0001314,
        "meta_inclination": 97.8942,
        "meta_ra_of_asc_node": 60.3672,
        "meta_arg_of_pericenter": 92.6834,
        "meta_mean_anomaly": 267.4529,
        "meta_ephemeris_type": 0,
        "meta_classification_type": "U",
        "meta_norad_cat_id": 48268,
        "meta_element_set_no": 999,
        "meta_rev_at_epoch": 25022,
        "meta_bstar": 0.00018515011,
        "meta_mean_motion_dot": 1.405e-05,
        "meta_mean_motion_ddot": 0,
        "tle_line1": "1 48268U 21034A   25347.94405574  .00001405  00000+0  18515-3 0  9999",
        "tle_line2": "2 48268  97.8942  60.3672 0001314  92.6834 267.4529 14.81674885250222"
      },
      "geometry": {
        "type": "Point",
        "coordinates": [
          -123.41586986904355,
          -30.495212721629102
        ]
      }
    },
    {
      "type": "Feature",
      "properties": {
        "norad_id": 49070,
        "name": "PLEIADES NEO 4",
        "group": "resource",
        "lat": 30.34555178803109,
        "lon": 56.6083717052858,
        "alt_km": 621.9602970142487,
        "timestamp": "2025-12-14T20:40:31.425667+00:00",
        "meta_object_name": "PLEIADES NEO 4",
        "meta_object_id": "2021-073E",
        "meta_epoch": "2025-12-12T08:34:07.569120",
        "meta_mean_motion": 14.81676895,
        "meta_eccentricity": 0.00012379,
        "meta_inclination": 97.8941,
        "meta_ra_of_asc_node": 58.7994,
        "meta_arg_of_pericenter": 92.1719,
        "meta_mean_anomaly": 267.9635,
        "meta_ephemeris_type": 0,
        "meta_classification_type": "U",
        "meta_norad_cat_id": 49070,
        "meta_element_set_no": 999,
        "meta_rev_at_epoch": 23370,
        "meta_bstar": 3.8133e-06,
        "meta_mean_motion_dot": -2.2e-07,
        "meta_mean_motion_ddot": 0,
        "tle_line1": "1 49070U 21073E   25346.35703205 -.00000022  00000+0  38133-5 0  9995",
        "tle_line2": "2 49070  97.8941  58.7994 0001237  92.1719 267.9635 14.81676895233702"
      },
      "geometry": {
        "type": "Point",
        "coordinates": [
          56.6083717052858,
          30.34555178803109
        ]
      }
    },
    {
      "type": "Feature",
      "properties": {
        "norad_id": 49260,
        "name": "LANDSAT 9",
        "group": "resource",
        "lat": -39.6436514566273,
        "lon": -129.92807137643007,
        "alt_km": 709.5987231350382,
        "timestamp": "2025-12-14T20:40:31.425677+00:00",
        "meta_object_name": "LANDSAT 9",
        "meta_object_id": "2021-088A",
        "meta_epoch": "2025-12-14T06:29:02.586912",
        "meta_mean_motion": 14.57099885,
        "meta_eccentricity": 0.00011583,
        "meta_inclination": 98.2094,
        "meta_ra_of_asc_node": 56.3591,
        "meta_arg_of_pericenter": 89.2114,
        "meta_mean_anomaly": 270.9217,
        "meta_ephemeris_type": 0,
        "meta_classification_type": "U",
        "meta_norad_cat_id": 49260,
        "meta_element_set_no": 999,
        "meta_rev_at_epoch": 22407,
        "meta_bstar": 0.00014364516,
        "meta_mean_motion_dot": 6.02e-06,
        "meta_mean_motion_ddot": 0,
        "tle_line1": "1 49260U 21088A   25348.27016883  .00000602  00000+0  14365-3 0  9996",
        "tle_line2": "2 49260  98.2094  56.3591 0001158  89.2114 270.9217 14.57099885224073"
      },
      "geometry": {
        "type": "Point",
        "coordinates": [
          -129.92807137643007,
          -39.6436514566273
        ]
      }
    }
  ]
}